NORAD_CAT_ID,OBJECT_NAME,OBJECT_TYPE,EPOCH,MEAN_MOTION,ECCENTRICITY,INCLINATION,RA_OF_ASC_NODE,ARG_OF_PERICENTER,MEAN_ANOMALY,BSTAR,MEAN_MOTION_DOT,MEAN_MOTION_DDOT,TLE_LINE0,TLE_LINE1,TLE_LINE2,SEMIMAJOR_AXIS,PERIOD,APOGEE,PERIGEE,DECAYED
53420.0,STARLINK-4552,PAYLOAD,2022-12-14 19:27:54,15.08839147,0.0001911,53.2199,15.2912,40.7096,319.4038,6.1558e-05,6.92e-06,0.0,0 STARLINK-4552,1 53420U 22097AJ  22348.81105304  .00000692  00000-0  61558-4 0  9991,2 53420  53.2199  15.2912 0001911  40.7096 319.4038 15.08839147 20357,6917.8830000000025,95.438,541.07,538.4259999999998,0.0
53420.0,STARLINK-4552,PAYLOAD,2022-12-15 11:21:46,15.08842211,0.0002164,53.2207,12.3162,41.1623,318.9532,5.9228e-07,-2.79e-06,0.0,0 STARLINK-4552,1 53420U 22097AJ  22349.47345248 -.00000279  00000-0  59228-6 0  9992,2 53420  53.2207  12.3162 0002164  41.1623 318.9532 15.08842211 19991,6917.874,95.437,541.236,538.242,0.0
53420.0,STARLINK-4552,PAYLOAD,2022-12-16 01:40:13,15.08857614,0.0002184,53.2219,9.6409,41.5702,318.5456,4.3007e-05,3.97e-06,0.0,0 STARLINK-4552,1 53420U 22097AJ  22350.06959870  .00000397  00000-0  43007-4 0  9997,2 53420  53.2219   9.6409 0002184  41.5702 318.5456 15.08857614 20087,6917.8269999999975,95.436,541.202,538.181,0.0
53420.0,STARLINK-4552,PAYLOAD,2022-12-16 04:51:00,15.08839986,0.0002713,53.2203,9.0452,22.8806,337.2307,-7.1015e-05,-1.419e-05,0.0,0 STARLINK-4552,1 53420U 22097AJ  22350.20209299 -.00001419  00000-0 -71015-4 0  9994,2 53420  53.2203   9.0452 0002713  22.8806 337.2307 15.08839986 20105,6917.88,95.438,541.622,537.869,0.0
53420.0,STARLINK-4552,PAYLOAD,2022-12-16 12:47:57,15.08832344,0.000235,53.2204,7.5598,34.3458,325.7685,-0.0001321,-2.39e-05,0.0,0 STARLINK-4552,1 53420U 22097AJ  22350.53329964 -.00002390  00000-0 -13210-3 0  9993,2 53420  53.2204   7.5598 0002350  34.3458 325.7685 15.08832344 20155,6917.904,95.438,541.394,538.143,0.0
53420.0,STARLINK-4552,PAYLOAD,2022-12-17 11:03:20,15.08835133,0.0002143,53.221,3.3963,39.7214,320.3934,-4.9844e-05,-1.081e-05,0.0,0 STARLINK-4552,1 53420U 22097AJ  22351.46065722 -.00001081  00000-0 -49844-4 0  9994,2 53420  53.2210   3.3963 0002143  39.7214 320.3934 15.08835133 20754,6917.895,95.438,541.243,538.278,0.0
53420.0,STARLINK-4552,PAYLOAD,2022-12-17 17:24:53,15.08832727,0.0002181,53.2205,2.2069,41.3853,318.7304,-1.6335e-05,-5.48e-06,0.0,0 STARLINK-4552,1 53420U 22097AJ  22351.72561791 -.00000548  00000-0 -16335-4 0  9996,2 53420  53.2205   2.2069 0002181  41.3853 318.7304 15.08832727 20795,6917.903,95.438,541.276,538.259,0.0
53420.0,STARLINK-4552,PAYLOAD,2022-12-18 07:43:22,15.08825344,0.0002183,53.2208,359.5308,42.172,317.944,-5.0541000000000005e-06,-3.69e-06,0.0,0 STARLINK-4552,1 53420U 22097AJ  22352.32178324 -.00000369  00000-0 -50541-5 0  9998,2 53420  53.2208 359.5308 0002183  42.1720 317.9440 15.08825344 20885,6917.925,95.438,541.3,538.28,0.0
53420.0,STARLINK-4552,PAYLOAD,2022-12-18 17:15:40,15.08829556,0.0002344,53.2212,357.7467,40.6867,319.43,8.8496e-05,1.12e-05,0.0,0 STARLINK-4552,1 53420U 22097AJ  22352.71922074  .00001120  00000-0  88496-4 0  9993,2 53420  53.2212 357.7467 0002344  40.6867 319.4300 15.08829556 20948,6917.9119999999975,95.438,541.399,538.156,0.0
53420.0,STARLINK-4552,PAYLOAD,2022-12-19 04:23:22,15.08844087,0.0002084,53.2214,355.6648,40.8826,319.2322,-3.1621e-05,-7.92e-06,0.0,0 STARLINK-4552,1 53420U 22097AJ  22353.18289727 -.00000792  00000-0 -31621-4 0  9990,2 53420  53.2214 355.6648 0002084  40.8826 319.2322 15.08844087 20551,6917.868,95.437,541.175,538.2909999999998,0.0
53420.0,STARLINK-4552,PAYLOAD,2022-12-19 07:34:08,15.08838774,0.0002105,53.2215,355.0701,42.0455,318.0699,5.4194e-06,-2.02e-06,0.0,0 STARLINK-4552,1 53420U 22097AJ  22353.31537935 -.00000202  00000-0  54194-5 0  9998,2 53420  53.2215 355.0701 0002105  42.0455 318.0699 15.08838774 21036,6917.884,95.438,541.205,538.293,0.0
53420.0,STARLINK-4552,PAYLOAD,2022-12-19 17:06:27,15.08838423,0.0002224,53.221,353.2848,37.9868,322.1281,0.00011997,1.622e-05,0.0,0 STARLINK-4552,1 53420U 22097AJ  22353.71281600  .00001622  00000-0  11997-3 0  9995,2 53420  53.2210 353.2848 0002224  37.9868 322.1281 15.08838423 21096,6917.885,95.438,541.289,538.212,0.0
53420.0,STARLINK-4552,PAYLOAD,2022-12-20 07:24:55,15.08840275,0.0002157,53.2216,350.6098,41.2272,318.8883,0.00010766,1.426e-05,0.0,0 STARLINK-4552,1 53420U 22097AJ  22354.30897521  .00001426  00000-0  10766-3 0  9991,2 53420  53.2216 350.6098 0002157  41.2272 318.8883 15.08840275 20729,6917.88,95.438,541.237,538.252,0.0
53420.0,STARLINK-4552,PAYLOAD,2022-12-21 00:54:10,15.08839277,0.000216,53.2216,347.3383,39.4872,320.6277,-3.2709e-05,-8.09e-06,0.0,0 STARLINK-4552,1 53420U 22097AJ  22355.03762037 -.00000809  00000-0 -32709-4 0  9993,2 53420  53.2216 347.3383 0002160  39.4872 320.6277 15.08839277 20838,6917.8830000000025,95.438,541.242,538.253,0.0
53420.0,STARLINK-4552,PAYLOAD,2022-12-21 07:15:44,15.08820525,0.0002121,53.2213,346.1498,31.6316,328.4803,-3.7968e-05,-8.92e-06,0.0,0 STARLINK-4552,1 53420U 22097AJ  22355.30259303 -.00000892  00000-0 -37968-4 0  9994,2 53420  53.2213 346.1498 0002121  31.6316 328.4803 15.08820525 20874,6917.94,95.439,541.2719999999998,538.3380000000002,0.0
53420.0,STARLINK-4552,PAYLOAD,2022-12-21 16:48:02,15.08842624,0.0001933,53.2203,344.3628,32.3097,327.8014,-0.00026383,-4.485e-05,0.0,0 STARLINK-4552,1 53420U 22097AJ  22355.70002735 -.00004485  00000-0 -26383-3 0  9993,2 53420  53.2203 344.3628 0001933  32.3097 327.8014 15.08842624 20930,6917.871999999999,95.437,541.075,538.4,0.0
53420.0,STARLINK-4552,PAYLOAD,2022-12-22 08:41:53,15.08839951,0.000208,53.2196,341.3937,36.4946,323.6188,-3.347e-05,-8.21e-06,0.0,0 STARLINK-4552,1 53420U 22097AJ  22356.36242412 -.00000821  00000-0 -33470-4 0  9990,2 53420  53.2196 341.3937 0002080  36.4946 323.6188 15.08839951 21490,6917.880999999999,95.438,541.184,538.307,0.0
53420.0,STARLINK-4552,PAYLOAD,2022-12-23 05:21:54,15.08828539,0.0002159,53.2205,337.5272,36.2485,323.8653,8.2985e-05,1.032e-05,0.0,0 STARLINK-4552,1 53420U 22097AJ  22357.22355005  .00001032  00000-0  82985-4 0  9997,2 53420  53.2205 337.5272 0002159  36.2485 323.8653 15.08828539 21166,6917.915,95.438,541.274,538.2869999999998,0.0
53420.0,STARLINK-4552,PAYLOAD,2022-12-23 08:32:41,15.08829807,0.0002066,53.2195,336.9331,37.6066,322.5071,7.1892e-05,8.56e-06,0.0,0 STARLINK-4552,1 53420U 22097AJ  22357.35603039  .00000856  00000-0  71892-4 0  9992,2 53420  53.2195 336.9331 0002066  37.6066 322.5071 15.08829807 21642,6917.9119999999975,95.438,541.206,538.347,0.0
53420.0,STARLINK-4552,PAYLOAD,2022-12-24 06:48:05,15.08812437,0.0002194,53.2204,332.7696,45.3897,314.7274,0.00029078,4.339e-05,0.0,0 STARLINK-4552,1 53420U 22097AJ  22358.28339630  .00004339  00000-0  29078-3 0  9996,2 53420  53.2204 332.7696 0002194  45.3897 314.7274 15.08812437 21325,6917.965,95.439,541.347,538.312,0.0
53420.0,STARLINK-4552,PAYLOAD,2022-12-24 08:23:28,15.08814642,0.0002188,53.2202,332.4718,45.1005,315.0164,0.00028884,4.309e-05,0.0,0 STARLINK-4552,1 53420U 22097AJ  22358.34963596  .00004309  00000-0  28884-3 0  9998,2 53420  53.2202 332.4718 0002188  45.1005 315.0164 15.08814642 21790,6917.958000000001,95.439,541.337,538.309,0.0
53420.0,STARLINK-4552,PAYLOAD,2022-12-25 03:28:05,15.08840117,0.0002194,53.2212,328.903,43.115,317.0014,8.4731e-05,1.061e-05,0.0,0 STARLINK-4552,1 53420U 22097AJ  22359.14450679  .00001061  00000-0  84731-4 0  9996,2 53420  53.2212 328.9030 0002194  43.1150 317.0014 15.08840117 21459,6917.88,95.438,541.263,538.227,0.0
53420.0,STARLINK-4552,PAYLOAD,2022-12-25 08:14:15,15.08833533,0.0002224,53.221,328.0131,38.3483,321.7667,3.5051e-05,2.7000000000000004e-06,0.0,0 STARLINK-4552,1 53420U 22097AJ  22359.34323324  .00000270  00000-0  35051-4 0  9996,2 53420  53.2210 328.0131 0002224  38.3483 321.7667 15.08833533 21482,6917.9,95.438,541.304,538.227,0.0
53420.0,STARLINK-4552,PAYLOAD,2022-12-25 14:35:48,15.08834233,0.000225,53.2208,326.8234,40.2105,319.9053,-1.3795e-05,-5.08e-06,0.0,0 STARLINK-4552,1 53420U 22097AJ  22359.60819539 -.00000508  00000-0 -13795-4 0  9990,2 53420  53.2208 326.8234 0002250  40.2105 319.9053 15.08834233 21982,6917.898,95.438,541.32,538.206,0.0
53420.0,STARLINK-4552,PAYLOAD,2022-12-26 04:54:16,15.08831983,0.000217,53.2211,324.1474,42.6557,317.4603,-4.7645e-05,-1.046e-05,0.0,0 STARLINK-4552,1 53420U 22097AJ  22360.20435952 -.00001046  00000-0 -47645-4 0  9990,2 53420  53.2211 324.1474 0002170  42.6557 317.4603 15.08831983 22075,6917.905,95.438,541.271,538.269,0.0
53420.0,STARLINK-4552,PAYLOAD,2022-12-26 20:48:07,15.08842302,0.0002072,53.2216,321.1738,41.3098,318.805,2.7169e-06,-2.45e-06,0.0,0 STARLINK-4552,1 53420U 22097AJ  22360.86675222 -.00000245  00000-0  27169-5 0  9997,2 53420  53.2216 321.1738 0002072  41.3098 318.8050 15.08842302 21715,6917.873000000001,95.437,541.172,538.305,0.0
53420.0,STARLINK-4552,PAYLOAD,2022-12-27 07:55:48,15.08846585,0.000217,53.2205,319.0909,37.9925,322.122,3.0725e-05,2.01e-06,0.0,0 STARLINK-4552,1 53420U 22097AJ  22361.33042817  .00000201  00000-0  30725-4 0  9990,2 53420  53.2205 319.0909 0002170  37.9925 322.1220 15.08846585 22241,6917.86,95.437,541.226,538.224,0.0
53420.0,STARLINK-4552,PAYLOAD,2022-12-27 14:17:20,15.0884876,0.0001992,53.2218,317.9032,39.797,320.3168,0.00014452,2.013e-05,0.0,0 STARLINK-4552,1 53420U 22097AJ  22361.59538148  .00002013  00000-0  14452-3 0  9996,2 53420  53.2218 317.9032 0001992  39.7970 320.3168 15.08848760 22282,6917.854,95.437,541.097,538.341,0.0
53420.0,STARLINK-4552,PAYLOAD,2022-12-28 06:11:12,15.08845926,0.0002106,53.2204,314.9282,38.4885,321.6257,0.0001028,1.348e-05,0.0,0 STARLINK-4552,1 53420U 22097AJ  22362.25778162  .00001348  00000-0  10280-3 0  9997,2 53420  53.2204 314.9282 0002106  38.4885 321.6257 15.08845926 22385,6917.861999999999,95.437,541.184,538.27,0.0
